{
  "type": "FeatureCollection",
  "features": [
    {
      "type": "Feature",
      "properties": {
        "norad_id": 39617,
        "name": "ASTRA 5B (EGNOS/PRN 123)",
        "group": "gnss",
        "lat": 0.06751553900794266,
        "lon": 96.85678548201845,
        "alt_km": 35805.49995820465,
        "timestamp": "2025-12-23T22:42:33.226637+00:00",
        "meta_object_name": "ASTRA 5B (EGNOS/PRN 123)",
        "meta_object_id": "2014-011B",
        "meta_epoch": "2025-12-23T06:23:47.555232",
        "meta_mean_motion": 1.00270566,
        "meta_eccentricity": 0.00045281,
        "meta_inclination": 0.0439,
        "meta_ra_of_asc_node": 8.6894,
        "meta_arg_of_pericenter": 270.3367,
        "meta_mean_anomaly": 292.4775,
        "meta_ephemeris_type": 0,
        "meta_classification_type": "U",
        "meta_norad_cat_id": 39617,
        "meta_element_set_no": 999,
        "meta_rev_at_epoch": 4290,
        "meta_bstar": 0,
        "meta_mean_motion_dot": 1.58e-06,
        "meta_mean_motion_ddot": 0,
        "tle_line1": "1 39617U 14011B   25357.26652263  .00000158  00000+0  00000+0 0  9999",
        "tle_line2": "2 39617   0.0439   8.6894 0004528 270.3367 292.4775  1.00270566 42904"
      },
      "geometry": {
        "type": "Point",
        "coordinates": [
          96.85678548201845,
          0.06751553900794266
        ]
      }
    },
    {
      "type": "Feature",
      "properties": {
        "norad_id": 39620,
        "name": "COSMOS 2492 (754)",
        "group": "gnss",
        "lat": 64.98398896131211,
        "lon": 38.68123384626123,
        "alt_km": 19147.182826608896,
        "timestamp": "2025-12-23T22:42:33.226648+00:00",
        "meta_object_name": "COSMOS 2492 (754)",
        "meta_object_id": "2014-012A",
        "meta_epoch": "2025-12-21T22:59:34.433088",
        "meta_mean_motion": 2.13103396,
        "meta_eccentricity": 0.00142426,
        "meta_inclination": 65.4026,
        "meta_ra_of_asc_node": 319.9579,
        "meta_arg_of_pericenter": 313.3292,
        "meta_mean_anomaly": 46.5466,
        "meta_ephemeris_type": 0,
        "meta_classification_type": "U",
        "meta_norad_cat_id": 39620,
        "meta_element_set_no": 999,
        "meta_rev_at_epoch": 9146,
        "meta_bstar": 0,
        "meta_mean_motion_dot": -4.2e-07,
        "meta_mean_motion_ddot": 0,
        "tle_line1": "1 39620U 14012A   25355.95803742 -.00000042  00000+0  00000+0 0  9991",
        "tle_line2": "2 39620  65.4026 319.9579 0014242 313.3292  46.5466  2.13103396 91463"
      },
      "geometry": {
        "type": "Point",
        "coordinates": [
          38.68123384626123,
          64.98398896131211
        ]
      }
    },
    {
      "type": "Feature",
      "properties": {
        "norad_id": 39635,
        "name": "IRNSS-1B",
        "group": "gnss",
        "lat": -26.313576701618707,
        "lon": 125.54263993220292,
        "alt_km": 35762.80569705594,
        "timestamp": "2025-12-23T22:42:33.226659+00:00",
        "meta_object_name": "IRNSS-1B",
        "meta_object_id": "2014-017A",
        "meta_epoch": "2025-12-22T18:17:38.465664",
        "meta_mean_motion": 1.00271468,
        "meta_eccentricity": 0.00185374,
        "meta_inclination": 29.2378,
        "meta_ra_of_asc_node": 243.4218,
        "meta_arg_of_pericenter": 174.8088,
        "meta_mean_anomaly": 2.8747,
        "meta_ephemeris_type": 0,
        "meta_classification_type": "U",
        "meta_norad_cat_id": 39635,
        "meta_element_set_no": 999,
        "meta_rev_at_epoch": 4302,
        "meta_bstar": 0,
        "meta_mean_motion_dot": 1.47e-06,
        "meta_mean_motion_ddot": 0,
        "tle_line1": "1 39635U 14017A   25356.76225076  .00000147  00000+0  00000+0 0  9995",
        "tle_line2": "2 39635  29.2378 243.4218 0018537 174.8088   2.8747  1.00271468 43029"
      },
      "geometry": {
        "type": "Point",
        "coordinates": [
          125.54263993220292,
          -26.313576701618707
        ]
      }
    },
    {
      "type": "Feature",
      "properties": {
        "norad_id": 39727,
        "name": "LUCH 5V (SDCM/PRN 141)",
        "group": "gnss",
        "lat": 4.6772266332726815,
        "lon": 168.07974322754785,
        "alt_km": 35791.82900320744,
        "timestamp": "2025-12-23T22:42:33.226671+00:00",
        "meta_object_name": "LUCH 5V (SDCM/PRN 141)",
        "meta_object_id": "2014-023A",
        "meta_epoch": "2025-12-23T06:44:08.107296",
        "meta_mean_motion": 1.00275037,
        "meta_eccentricity": 0.00037053,
        "meta_inclination": 4.6948,
        "meta_ra_of_asc_node": 71.4501,
        "meta_arg_of_pericenter": 214.003,
        "meta_mean_anomaly": 2.3759,
        "meta_ephemeris_type": 0,
        "meta_classification_type": "U",
        "meta_norad_cat_id": 39727,
        "meta_element_set_no": 999,
        "meta_rev_at_epoch": 4259,
        "meta_bstar": 0,
        "meta_mean_motion_dot": -2.5e-06,
        "meta_mean_motion_ddot": 0,
        "tle_line1": "1 39727U 14023A   25357.28064939 -.00000250  00000+0  00000+0 0  9997",
        "tle_line2": "2 39727   4.6948  71.4501 0003705 214.0030   2.3759  1.00275037 42595"
      },
      "geometry": {
        "type": "Point",
        "coordinates": [
          168.07974322754785,
          4.6772266332726815
        ]
      }
    },
    {
      "type": "Feature",
      "properties": {
        "norad_id": 39741,
        "name": "GPS BIIF-6  (PRN 06)",
        "group": "gnss",
        "lat": -9.211330511243268,
        "lon": -27.8186032857169,
        "alt_km": 20092.938318583714,
        "timestamp": "2025-12-23T22:42:33.226682+00:00",
        "meta_object_name": "GPS BIIF-6  (PRN 06)",
        "meta_object_id": "2014-026A",
        "meta_epoch": "2025-12-21T23:12:34.799616",
        "meta_mean_motion": 2.00560759,
        "meta_eccentricity": 0.00394103,
        "meta_inclination": 56.58,
        "meta_ra_of_asc_node": 338.4177,
        "meta_arg_of_pericenter": 319.2097,
        "meta_mean_anomaly": 40.4995,
        "meta_ephemeris_type": 0,
        "meta_classification_type": "U",
        "meta_norad_cat_id": 39741,
        "meta_element_set_no": 999,
        "meta_rev_at_epoch": 8498,
        "meta_bstar": 0,
        "meta_mean_motion_dot": -6.8e-07,
        "meta_mean_motion_ddot": 0,
        "tle_line1": "1 39741U 14026A   25355.96706944 -.00000068  00000+0  00000+0 0  9995",
        "tle_line2": "2 39741  56.5800 338.4177 0039410 319.2097  40.4995  2.00560759 84985"
      },
      "geometry": {
        "type": "Point",
        "coordinates": [
          -27.8186032857169,
          -9.211330511243268
        ]
      }
    },
    {
      "type": "Feature",
      "properties": {
        "norad_id": 40001,
        "name": "COSMOS 2500 (755)",
        "group": "gnss",
        "lat": -41.400090152159756,
        "lon": -64.24173877394135,
        "alt_km": 19136.035439780433,
        "timestamp": "2025-12-23T22:42:33.226693+00:00",
        "meta_object_name": "COSMOS 2500 (755)",
        "meta_object_id": "2014-032A",
        "meta_epoch": "2025-12-21T04:35:55.026240",
        "meta_mean_motion": 2.13106227,
        "meta_eccentricity": 0.00077299,
        "meta_inclination": 65.3386,
        "meta_ra_of_asc_node": 319.7453,
        "meta_arg_of_pericenter": 219.3736,
        "meta_mean_anomaly": 140.5635,
        "meta_ephemeris_type": 0,
        "meta_classification_type": "U",
        "meta_norad_cat_id": 40001,
        "meta_element_set_no": 999,
        "meta_rev_at_epoch": 8966,
        "meta_bstar": 0,
        "meta_mean_motion_dot": -4.7e-07,
        "meta_mean_motion_ddot": 0,
        "tle_line1": "1 40001U 14032A   25355.19160910 -.00000047  00000+0  00000+0 0  9992",
        "tle_line2": "2 40001  65.3386 319.7453 0007729 219.3736 140.5635  2.13106227 89663"
      },
      "geometry": {
        "type": "Point",
        "coordinates": [
          -64.24173877394135,
          -41.400090152159756
        ]
      }
    },
    {
      "type": "Feature",
      "properties": {
        "norad_id": 40105,
        "name": "GPS BIIF-7  (PRN 09)",
        "group": "gnss",
        "lat": -51.88818074125151,
        "lon": 33.313230089657004,
        "alt_km": 20270.6930265821,
        "timestamp": "2025-12-23T22:42:33.226708+00:00",
        "meta_object_name": "GPS BIIF-7  (PRN 09)",
        "meta_object_id": "2014-045A",
        "meta_epoch": "2025-12-22T13:15:41.120928",
        "meta_mean_motion": 2.00573178,
        "meta_eccentricity": 0.00324213,
        "meta_inclination": 55.2347,
        "meta_ra_of_asc_node": 95.5075,
        "meta_arg_of_pericenter": 120.1432,
        "meta_mean_anomaly": 240.1836,
        "meta_ephemeris_type": 0,
        "meta_classification_type": "U",
        "meta_norad_cat_id": 40105,
        "meta_element_set_no": 999,
        "meta_rev_at_epoch": 8253,
        "meta_bstar": 0,
        "meta_mean_motion_dot": 1e-08,
        "meta_mean_motion_ddot": 0,
        "tle_line1": "1 40105U 14045A   25356.55255927  .00000001  00000+0  00000+0 0  9994",
        "tle_line2": "2 40105  55.2347  95.5075 0032421 120.1432 240.1836  2.00573178 82539"
      },
      "geometry": {
        "type": "Point",
        "coordinates": [
          33.313230089657004,
          -51.88818074125151
        ]
      }
    }
  ]
}